NORAD_CAT_ID,OBJECT_NAME,OBJECT_TYPE,EPOCH,MEAN_MOTION,ECCENTRICITY,INCLINATION,RA_OF_ASC_NODE,ARG_OF_PERICENTER,MEAN_ANOMALY,BSTAR,MEAN_MOTION_DOT,MEAN_MOTION_DDOT,TLE_LINE0,TLE_LINE1,TLE_LINE2,SEMIMAJOR_AXIS,PERIOD,APOGEE,PERIGEE,DECAYED
55274.0,STARLINK-5236,PAYLOAD,2023-02-17 11:45:28,15.69901345,0.0002991,70.001,347.5101,277.1325,82.9531,0.00026167,0.00031337,0.0,0 STARLINK-5236,1 55274U 23010F   23048.48990971  .00031337  00000-0  26167-3 0  9995,2 55274  70.0010 347.5101 0002991 277.1325  82.9531 15.69901345  5053,6737.316,91.726,361.196,357.166,0.0
55274.0,STARLINK-5236,PAYLOAD,2023-02-17 13:17:13,15.69900962,0.0003176,70.0009,347.3307,272.4767,87.6065,0.0003389,0.00040695,0.0,0 STARLINK-5236,1 55274U 23010F   23048.55362609  .00040695  00000-0  33890-3 0  9992,2 55274  70.0009 347.3307 0003176 272.4767  87.6065 15.69900962  5385,6737.317,91.726,361.322,357.043,0.0
55274.0,STARLINK-5236,PAYLOAD,2023-02-17 20:55:59,15.69935283,0.0003153,70.0009,346.4349,270.9449,89.1385,0.0006597,0.00079904,0.0,0 STARLINK-5236,1 55274U 23010F   23048.87221113  .00079904  00000-0  65970-3 0  9990,2 55274  70.0009 346.4349 0003153 270.9449  89.1385 15.69935283  5438,6737.219,91.724,361.208,356.96,0.0
55274.0,STARLINK-5236,PAYLOAD,2023-02-18 01:31:14,15.69966534,0.0003154,70.0012,345.8973,268.7209,91.3625,0.0006721,0.00081531,0.0,0 STARLINK-5236,1 55274U 23010F   23049.06335762  .00081531  00000-0  67210-3 0  9996,2 55274  70.0012 345.8973 0003154 268.7209  91.3625 15.69966534  5141,6737.13,91.722,361.12,356.87,0.0
55274.0,STARLINK-5236,PAYLOAD,2023-02-18 10:41:44,15.69930621,0.0003078,70.0015,344.8224,280.8487,79.2362,0.00020015,0.00023928,0.0,0 STARLINK-5236,1 55274U 23010F   23049.44565577  .00023928  00000-0  20015-3 0  9995,2 55274  70.0015 344.8224 0003078 280.8487  79.2362 15.69930621  5208,6737.232,91.724,361.171,357.024,0.0
55274.0,STARLINK-5236,PAYLOAD,2023-02-18 13:45:14,15.69930549,0.0003244,70.0015,344.4642,275.3728,84.7098,0.00030872,0.00037082,0.0,0 STARLINK-5236,1 55274U 23010F   23049.57308730  .00037082  00000-0  30872-3 0  9993,2 55274  70.0015 344.4642 0003244 275.3728  84.7098 15.69930549  5543,6737.233,91.724,361.283,356.912,0.0
55274.0,STARLINK-5236,PAYLOAD,2023-02-18 19:52:15,15.6992089,0.0003236,70.0015,343.7477,277.1966,82.8861,0.00046631,0.00056225,0.0,0 STARLINK-5236,1 55274U 23010F   23049.82795731  .00056225  00000-0  46631-3 0  9992,2 55274  70.0015 343.7477 0003236 277.1966  82.8861 15.69920890  5260,6737.26,91.724,361.306,356.945,0.0
55274.0,STARLINK-5236,PAYLOAD,2023-02-19 11:09:46,15.69923343,0.000302,70.0017,341.9565,280.6583,79.4272,0.00038293,0.00046081,0.0,0 STARLINK-5236,1 55274U 23010F   23050.46512414  .00046081  00000-0  38293-3 0  9993,2 55274  70.0017 341.9565 0003020 280.6583  79.4272 15.69923343  5360,6737.253,91.724,361.153,357.084,0.0
55274.0,STARLINK-5236,PAYLOAD,2023-02-19 12:41:31,15.69922442,0.0003385,70.0016,341.7773,268.639,91.4418,0.00027331,0.00032777,0.0,0 STARLINK-5236,1 55274U 23010F   23050.52883859  .00032777  00000-0  27331-3 0  9992,2 55274  70.0016 341.7773 0003385 268.6390  91.4418 15.69922442  5695,6737.256,91.724,361.401,356.84,0.0
55274.0,STARLINK-5236,PAYLOAD,2023-02-20 03:59:02,15.69936535,0.0003422,70.0015,339.9859,271.905,88.1754,0.00037828,0.00045543,0.0,0 STARLINK-5236,1 55274U 23010F   23051.16600519  .00045543  00000-0  37828-3 0  9990,2 55274  70.0015 339.9859 0003422 271.9050  88.1754 15.69936535  5470,6737.216,91.723,361.386,356.775,0.0
55274.0,STARLINK-5236,PAYLOAD,2023-02-20 10:06:03,15.69924033,0.0003281,70.0017,339.2694,273.3604,86.7217,0.0003656,0.00043978,0.0,0 STARLINK-5236,1 55274U 23010F   23051.42087245  .00043978  00000-0  36560-3 0  9996,2 55274  70.0017 339.2694 0003281 273.3604  86.7217 15.69924033  5519,6737.251,91.724,361.327,356.906,0.0
55274.0,STARLINK-5236,PAYLOAD,2023-02-20 13:09:33,15.69929032,0.0003332,70.0017,338.9113,271.3102,88.7712,0.00048525,0.00058554,0.0,0 STARLINK-5236,1 55274U 23010F   23051.54830546  .00058554  00000-0  48525-3 0  9999,2 55274  70.0017 338.9113 0003332 271.3102  88.7712 15.69929032  5852,6737.237,91.724,361.347,356.857,0.0
55274.0,STARLINK-5236,PAYLOAD,2023-02-20 19:16:34,15.699159,0.0003404,70.0016,338.1946,266.7804,93.3002,0.00046683,0.00056278,0.0,0 STARLINK-5236,1 55274U 23010F   23051.80317556  .00056278  00000-0  46683-3 0  9993,2 55274  70.0016 338.1946 0003404 266.7804  93.3002 15.69915900  5576,6737.275,91.725,361.433,356.846,0.0
55274.0,STARLINK-5236,PAYLOAD,2023-02-21 10:34:05,15.69913077,0.0002955,70.0016,336.4034,274.405,85.6808,0.00014001,0.00016647,0.0,0 STARLINK-5236,1 55274U 23010F   23052.44034362  .00016647  00000-0  14001-3 0  9990,2 55274  70.0016 336.4034 0002955 274.4050  85.6808 15.69913077  5676,6737.283,91.725,361.139,357.157,0.0
55274.0,STARLINK-5236,PAYLOAD,2023-02-21 13:37:35,15.69925844,0.0003505,70.0015,336.0454,260.6983,99.3816,0.00045093,0.00054365,0.0,0 STARLINK-5236,1 55274U 23010F   23052.56777449  .00054365  00000-0  45093-3 0  9997,2 55274  70.0015 336.0454 0003505 260.6983  99.3816 15.69925844  6016,6737.246,91.724,361.473,356.75,0.0
55274.0,STARLINK-5236,PAYLOAD,2023-02-21 19:44:36,15.69948852,0.0003455,70.0011,335.3287,259.4733,100.6074,0.00070893,0.00085998,0.0,0 STARLINK-5236,1 55274U 23010F   23052.82263977  .00085998  00000-0  70893-3 0  9994,2 55274  70.0011 335.3287 0003455 259.4733 100.6074 15.69948852  5735,6737.18,91.723,361.373,356.718,0.0
55274.0,STARLINK-5236,PAYLOAD,2023-02-21 21:16:21,15.69953155,0.0003446,70.0012,335.1497,259.6175,100.4632,0.00056868,0.00068813,0.0,0 STARLINK-5236,1 55274U 23010F   23052.88635539  .00068813  00000-0  56868-3 0  9990,2 55274  70.0012 335.1497 0003446 259.6175 100.4632 15.69953155  6066,6737.168,91.722,361.355,356.711,0.0
55274.0,STARLINK-5236,PAYLOAD,2023-02-22 06:26:52,15.69904084,0.0003147,70.0011,334.0749,267.499,92.5846,0.00010533,0.0001246,0.0,0 STARLINK-5236,1 55274U 23010F   23053.26865768  .00012460  00000-0  10533-3 0  9998,2 55274  70.0011 334.0749 0003147 267.4990  92.5846 15.69904084  5809,6737.308,91.725,361.294,357.053,0.0
55274.0,STARLINK-5236,PAYLOAD,2023-02-22 21:44:23,15.69959234,0.0003466,70.0008,332.2835,263.5183,96.5619,0.00059216,0.00071706,0.0,0 STARLINK-5236,1 55274U 23010F   23053.90582467  .00071706  00000-0  59216-3 0  9990,2 55274  70.0008 332.2835 0003466 263.5183  96.5619 15.69959234  6222,6737.151,91.722,361.351,356.681,0.0
55274.0,STARLINK-5236,PAYLOAD,2023-02-23 00:47:53,15.69967872,0.0003254,70.0009,331.9251,267.2427,92.8397,0.00050217,0.00060716,0.0,0 STARLINK-5236,1 55274U 23010F   23054.03325590  .00060716  00000-0  50217-3 0  9998,2 55274  70.0009 331.9251 0003254 267.2427  92.8397 15.69967872  5923,6737.126,91.722,361.183,356.799,0.0
55274.0,STARLINK-5236,PAYLOAD,2023-02-23 06:54:54,15.69936555,0.0002356,70.0008,331.2087,267.9444,92.1482,0.00047341,0.00057121,0.0,0 STARLINK-5236,1 55274U 23010F   23054.28812568  .00057121  00000-0  47341-3 0  9991,2 55274  70.0008 331.2087 0002356 267.9444  92.1482 15.69936555  5966,6737.216,91.723,360.668,357.493,0.0
55274.0,STARLINK-5236,PAYLOAD,2023-02-23 17:37:09,15.69933299,0.0003409,70.0004,329.9548,267.5249,92.5557,0.00055285,0.0006682,0.0,0 STARLINK-5236,1 55274U 23010F   23054.73414263  .00066820  00000-0  55285-3 0  9993,2 55274  70.0004 329.9548 0003409 267.5249  92.5557 15.69933299  6035,6737.225,91.724,361.387,356.793,0.0
55274.0,STARLINK-5236,PAYLOAD,2023-02-23 20:40:40,15.69948353,0.0003391,70.0003,329.5963,265.7615,94.3193,0.00057421,0.00069475,0.0,0 STARLINK-5236,1 55274U 23010F   23054.86157609  .00069475  00000-0  57421-3 0  9998,2 55274  70.0003 329.5963 0003391 265.7615  94.3193 15.69948353  6378,6737.182,91.723,361.331,356.762,0.0
55274.0,STARLINK-5236,PAYLOAD,2023-02-24 05:51:10,15.69929205,0.0003401,70.0004,328.5212,266.314,93.7667,0.00018933,0.00022619,0.0,0 STARLINK-5236,1 55274U 23010F   23055.24387325  .00022619  00000-0  18933-3 0  9995,2 55274  70.0004 328.5212 0003401 266.3140  93.7667 15.69929205  6113,6737.237,91.724,361.393,356.81,0.0
55274.0,STARLINK-5236,PAYLOAD,2023-02-24 18:05:12,15.69931222,0.000335,70.0005,327.0889,265.6991,94.3822,0.0001659,0.00019788,0.0,0 STARLINK-5236,1 55274U 23010F   23055.75361205  .00019788  00000-0  16590-3 0  9990,2 55274  70.0005 327.0889 0003350 265.6991  94.3822 15.69931222  6197,6737.231,91.724,361.353,356.839,0.0
55274.0,STARLINK-5236,PAYLOAD,2023-02-24 19:36:57,15.69930105,0.0003414,70.0004,326.9102,264.2727,95.808,0.00017328,0.00020679,0.0,0 STARLINK-5236,1 55274U 23010F   23055.81732890  .00020679  00000-0  17328-3 0  9990,2 55274  70.0004 326.9102 0003414 264.2727  95.8080 15.69930105  6523,6737.234,91.724,361.399,356.799,0.0
55274.0,STARLINK-5236,PAYLOAD,2023-02-25 01:43:57,15.69950105,0.0003401,70.0003,326.1932,264.0031,96.0777,0.00036272,0.00043676,0.0,0 STARLINK-5236,1 55274U 23010F   23056.07219428  .00043676  00000-0  36272-3 0  9997,2 55274  70.0003 326.1932 0003401 264.0031  96.0777 15.69950105  6244,6737.177,91.723,361.333,356.75,0.0
55274.0,STARLINK-5236,PAYLOAD,2023-02-25 18:33:14,15.69948213,0.0002748,70.0,324.2212,265.7977,94.2905,0.00028827,0.00034624,0.0,0 STARLINK-5236,1 55274U 23010F   23056.77307919  .00034624  00000-0  28827-3 0  9997,2 55274  70.0000 324.2212 0002748 265.7977  94.2905 15.69948213  6353,6737.182,91.723,360.899,357.196,0.0
55274.0,STARLINK-5236,PAYLOAD,2023-02-25 20:04:58,15.69943397,0.0003809,69.9996,324.0429,255.5286,104.5488,0.00016962,0.0002025,0.0,0 STARLINK-5236,1 55274U 23010F   23056.83679288  .00020250  00000-0  16962-3 0  9992,2 55274  69.9996 324.0429 0003809 255.5286 104.5488 15.69943397  6686,6737.196,91.723,361.627,356.495,0.0
55274.0,STARLINK-5236,PAYLOAD,2023-02-26 02:11:59,15.69934694,0.0003415,70.0007,323.3269,233.3924,126.6958,0.00030804,0.00037007,0.0,0 STARLINK-5236,1 55274U 23010F   23057.09165979  .00037007  00000-0  30804-3 0  9997,2 55274  70.0007 323.3269 0003415 233.3924 126.6958 15.69934694  6409,6737.221,91.724,361.387,356.785,0.0
